IRIDIUM 7 [-]           
1 24793U 97020B   24094.48756182  .00000466  00000+0  15655-3 0  9993
2 24793  86.4020   1.1097 0002378  91.1507 268.9962 14.35142588408812
IRIDIUM 5 [-]           
1 24795U 97020D   24094.53705165  .00003581  00000+0  34875-3 0  9992
2 24795  86.3876 285.0860 0121817 267.4429  91.2846 14.86717961419970
IRIDIUM 4 [-]           
1 24796U 97020E   24094.47274270  .00000518  00000+0  17146-3 0  9993
2 24796  86.4014 358.2881 0002130  90.0827 270.0614 14.36062911409343
IRIDIUM 914 [-]         
1 24836U 97030A   24094.49467827  .00000605  00000+0  18624-3 0  9992
2 24836  86.3995   8.1638 0001282 141.2776 218.8515 14.39907116543836
IRIDIUM 16 [-]          
1 24841U 97030F   24094.56994630  .00000693  00000+0  22384-3 0  9998
2 24841  86.4078  29.9030 0004295  78.0888 282.0791 14.37793253403815
IRIDIUM 911 [-]         
1 24842U 97030G   24094.31896376  .00000904  00000+0  24577-3 0  9991
2 24842  86.4505  29.1986 0016220 118.9632 241.3199 14.46400370411471
IRIDIUM 17 [-]          
1 24870U 97034B   24094.42229565  .00000735  00000+0  24222-3 0  9997
2 24870  86.3946  59.5814 0003143  57.2689 302.8811 14.36880242400419
IRIDIUM 920 [-]         
1 24871U 97034C   24094.55444146  .00000699  00000+0  21293-3 0  9990
2 24871  86.4002  39.7760 0013835  91.1933 269.0851 14.40606277403265
